NORAD_CAT_ID,OBJECT_NAME,OBJECT_TYPE,EPOCH,MEAN_MOTION,ECCENTRICITY,INCLINATION,RA_OF_ASC_NODE,ARG_OF_PERICENTER,MEAN_ANOMALY,BSTAR,MEAN_MOTION_DOT,MEAN_MOTION_DDOT,TLE_LINE0,TLE_LINE1,TLE_LINE2,SEMIMAJOR_AXIS,PERIOD,APOGEE,PERIGEE,DECAYED
55399.0,STARLINK-5276,PAYLOAD,2024-03-19 10:57:42,14.98331912,0.0002899,69.9992,80.3352,262.424,97.659,9.7135e-06,2.3e-07,0.0,0 STARLINK-5276,1 55399U 23014J   24079.45674173  .00000023  00000-0  97135-5 0  9995,2 55399  69.9992  80.3352 0002899 262.4240  97.6590 14.98331912 63237,6950.187,96.107,574.067,570.037,0.0
55399.0,STARLINK-5276,PAYLOAD,2024-03-20 09:23:35,14.98328811,0.0002908,69.9993,77.9785,262.8695,97.2133,-2.2622e-05,-3.63e-06,0.0,0 STARLINK-5276,1 55399U 23014J   24080.39138427 -.00000363  00000-0 -22622-4 0  9994,2 55399  69.9993  77.9785 0002908 262.8695  97.2133 14.98328811 64312,6950.197,96.107,574.083,570.04,0.0
55399.0,STARLINK-5276,PAYLOAD,2024-03-21 04:37:12,14.98327708,0.0002932,69.9994,75.958,263.8205,96.262,-3.7451e-05,-5.4e-06,0.0,0 STARLINK-5276,1 55399U 23014J   24081.19250590 -.00000540  00000-0 -37451-4 0  9992,2 55399  69.9994  75.9580 0002932 263.8205  96.2620 14.98327708 63491,6950.2,96.107,574.103,570.027,0.0
55399.0,STARLINK-5276,PAYLOAD,2024-03-21 09:25:36,14.98328038,0.000296,69.9995,75.453,269.848,90.234,-2.97e-05,-4.47e-06,0.0,0 STARLINK-5276,1 55399U 23014J   24081.39278615 -.00000447  00000-0 -29700-4 0  9996,2 55399  69.9995  75.4530 0002960 269.8480  90.2340 14.98328038 64462,6950.199,96.107,574.121,570.007,0.0
55399.0,STARLINK-5276,PAYLOAD,2024-03-21 17:26:21,14.98283092,0.0002814,69.9995,74.611,274.3326,85.7511,-0.00048351,-5.85e-05,0.0,0 STARLINK-5276,1 55399U 23014J   24081.72663298 -.00005850  00000-0 -48351-3 0  9993,2 55399  69.9995  74.6110 0002814 274.3326  85.7511 14.98283092 63575,6950.338,96.11,574.159,570.247,0.0
55399.0,STARLINK-5276,PAYLOAD,2024-03-22 04:39:14,14.98324116,0.0002203,70.0004,73.43,253.7847,106.307,7.0312e-05,7.46e-06,0.0,0 STARLINK-5276,1 55399U 23014J   24082.19391875  .00000746  00000-0  70312-4 0  9994,2 55399  70.0004  73.4300 0002203 253.7847 106.3070 14.98324116 63649,6950.211,96.107,573.607,570.545,0.0
55399.0,STARLINK-5276,PAYLOAD,2024-03-22 09:27:38,14.98328526,0.0002377,70.0007,72.9262,267.988,92.1007,0.00010569,1.168e-05,0.0,0 STARLINK-5276,1 55399U 23014J   24082.39419600  .00001168  00000-0  10569-3 0  9999,2 55399  70.0007  72.9262 0002377 267.9880  92.1007 14.98328526 64618,6950.197,96.107,573.715,570.41,0.0
55399.0,STARLINK-5276,PAYLOAD,2024-03-23 04:41:14,14.9834055,0.0002377,70.0003,70.9068,269.8496,90.239,0.00012458,1.394e-05,0.0,0 STARLINK-5276,1 55399U 23014J   24083.19530563  .00001394  00000-0  12458-3 0  9990,2 55399  70.0003  70.9068 0002377 269.8496  90.2390 14.98340550 63793,6950.16,96.106,573.677,570.373,0.0
55399.0,STARLINK-5276,PAYLOAD,2024-03-23 09:29:38,14.98337247,0.0002725,70.0006,70.4022,270.7924,89.2923,0.00018965,2.171e-05,0.0,0 STARLINK-5276,1 55399U 23014J   24083.39558506  .00002171  00000-0  18965-3 0  9992,2 55399  70.0006  70.4022 0002725 270.7924  89.2923 14.98337247 64762,6950.17,96.107,573.929,570.142,0.0
55399.0,STARLINK-5276,PAYLOAD,2024-03-24 04:43:15,14.98339031,0.0002606,70.001,68.384,275.4448,84.6414,0.00010021,1.103e-05,0.0,0 STARLINK-5276,1 55399U 23014J   24084.19670535  .00001103  00000-0  10021-3 0  9997,2 55399  70.0010  68.3840 0002606 275.4448  84.6414 14.98339031 63948,6950.165,96.106,573.841,570.219,0.0
55399.0,STARLINK-5276,PAYLOAD,2024-03-24 09:31:39,14.98346253,0.0002361,70.0014,67.8798,256.5911,103.4985,7.0072e-05,7.44e-06,0.0,0 STARLINK-5276,1 55399U 23014J   24084.39697917  .00000744  00000-0  70072-4 0  9995,2 55399  70.0014  67.8798 0002361 256.5911 103.4985 14.98346253 63971,6950.143,96.106,573.649,570.367,0.0
55399.0,STARLINK-5276,PAYLOAD,2024-03-25 04:45:16,14.98331401,0.0002899,70.0001,65.8589,265.2435,94.8393,-0.00018915,-2.349e-05,0.0,0 STARLINK-5276,1 55399U 23014J   24085.19811122 -.00002349  00000-0 -18915-3 0  9992,2 55399  70.0001  65.8589 0002899 265.2435  94.8393 14.98331401 64096,6950.189,96.107,574.068,570.039,0.0
55399.0,STARLINK-5276,PAYLOAD,2024-03-25 15:58:13,14.98326918,0.0002153,70.0017,64.6797,273.5583,86.533,-0.00020267,-2.51e-05,0.0,0 STARLINK-5276,1 55399U 23014J   24085.66543585 -.00002510  00000-0 -20267-3 0  9992,2 55399  70.0017  64.6797 0002153 273.5583  86.5330 14.98326918 65109,6950.202,96.107,573.564,570.571,0.0
55399.0,STARLINK-5276,PAYLOAD,2024-03-26 04:47:17,14.98328744,0.0002624,70.0008,63.3331,265.8481,94.2378,-0.00011431,-1.457e-05,0.0,0 STARLINK-5276,1 55399U 23014J   24086.19951110 -.00001457  00000-0 -11431-3 0  9990,2 55399  70.0008  63.3331 0002624 265.8481  94.2378 14.98328744 64244,6950.197,96.107,573.886,570.238,0.0
55399.0,STARLINK-5276,PAYLOAD,2024-03-26 07:59:33,14.98332458,0.0002796,70.0005,62.9968,265.9104,94.1736,-9.8326e-05,-1.266e-05,0.0,0 STARLINK-5276,1 55399U 23014J   24086.33302799 -.00001266  00000-0 -98326-4 0  9996,2 55399  70.0005  62.9968 0002796 265.9104  94.1736 14.98332458 65206,6950.185,96.107,573.994,570.107,0.0
55399.0,STARLINK-5276,PAYLOAD,2024-03-26 16:00:13,14.98335373,0.0002932,70.0005,62.1539,268.1631,91.9192,-0.00010355,-1.328e-05,0.0,0 STARLINK-5276,1 55399U 23014J   24086.66682549 -.00001328  00000-0 -10355-3 0  9990,2 55399  70.0005  62.1539 0002932 268.1631  91.9192 14.98335373 64315,6950.176,96.107,574.079,570.003,0.0
55399.0,STARLINK-5276,PAYLOAD,2024-03-26 22:24:46,14.98327059,0.0002957,70.0002,61.4812,265.0196,95.0625,9.7308e-05,1.068e-05,0.0,0 STARLINK-5276,1 55399U 23014J   24086.93386631  .00001068  00000-0  97308-4 0  9996,2 55399  70.0002  61.4812 0002957 265.0196  95.0625 14.98327059 65293,6950.202,96.107,574.122,570.012,0.0
55399.0,STARLINK-5276,PAYLOAD,2024-03-27 08:01:34,14.98332849,0.0002941,70.0002,60.4718,266.384,93.6982,0.0001483,1.677e-05,0.0,0 STARLINK-5276,1 55399U 23014J   24087.33442181  .00001677  00000-0  14830-3 0  9998,2 55399  70.0002  60.4718 0002941 266.3840  93.6982 14.98332849 65350,6950.184,96.107,574.093,570.005,0.0
55399.0,STARLINK-5276,PAYLOAD,2024-03-27 22:26:47,14.98310266,0.0003001,70.0003,58.957,266.6273,93.4543,0.00041001,4.8e-05,0.0,0 STARLINK-5276,1 55399U 23014J   24087.93526840  .00004800  00000-0  41001-3 0  9990,2 55399  70.0003  58.9570 0003001 266.6273  93.4543 14.98310266 65440,6950.254,96.108,574.205,570.033,0.0
55399.0,STARLINK-5276,PAYLOAD,2024-03-28 04:51:19,14.98332406,0.0003025,70.0004,58.2837,268.0149,92.0663,4.1788e-05,4.06e-06,0.0,0 STARLINK-5276,1 55399U 23014J   24088.20230477  .00000406  00000-0  41788-4 0  9990,2 55399  70.0004  58.2837 0003025 268.0149  92.0663 14.98332406 64542,6950.185,96.107,574.153,569.948,0.0
55399.0,STARLINK-5276,PAYLOAD,2024-03-28 08:03:34,14.98335971,0.0003006,70.0004,57.947,267.9966,92.0849,7.8323e-05,8.42e-06,0.0,0 STARLINK-5276,1 55399U 23014J   24088.33582096  .00000842  00000-0  78323-4 0  9990,2 55399  70.0004  57.9470 0003006 267.9966  92.0849 14.98335971 65508,6950.174,96.107,574.129,569.95,0.0
55399.0,STARLINK-5276,PAYLOAD,2024-03-28 22:28:47,14.98326531,0.0002828,70.001,56.4331,267.432,92.6515,6.4947e-05,6.82e-06,0.0,0 STARLINK-5276,1 55399U 23014J   24088.93666605  .00000682  00000-0  64947-4 0  9994,2 55399  70.0010  56.4331 0002828 267.4320  92.6515 14.98326531 65592,6950.204,96.107,574.034,570.103,0.0
55399.0,STARLINK-5276,PAYLOAD,2024-03-29 04:53:19,14.98334011,0.0002773,70.001,55.7599,265.985,94.0992,-3.4942e-05,-5.1e-06,0.0,0 STARLINK-5276,1 55399U 23014J   24089.20370335 -.00000510  00000-0 -34942-4 0  9991,2 55399  70.0010  55.7599 0002773 265.9850  94.0992 14.98334011 64697,6950.18,96.107,573.973,570.118,0.0
55399.0,STARLINK-5276,PAYLOAD,2024-03-29 14:30:08,14.98334846,0.00027,70.0014,54.7493,266.0006,94.0845,-8.0156e-05,-1.049e-05,0.0,0 STARLINK-5276,1 55399U 23014J   24089.60426236 -.00001049  00000-0 -80156-4 0  9993,2 55399  70.0014  54.7493 0002700 266.0006  94.0845 14.98334846 65692,6950.178,96.107,573.919,570.166,0.0
55399.0,STARLINK-5276,PAYLOAD,2024-03-29 22:30:48,14.9833224,0.0002525,70.0017,53.9074,267.0329,93.0541,-5.8684e-06,-1.63e-06,0.0,0 STARLINK-5276,1 55399U 23014J   24089.93806161 -.00000163  00000-0 -58684-5 0  9996,2 55399  70.0017  53.9074 0002525 267.0329  93.0541 14.98332240 65749,6950.186,96.107,573.806,570.296,0.0
55399.0,STARLINK-5276,PAYLOAD,2024-03-30 04:55:20,14.98331917,0.0002557,70.0015,53.2344,265.278,94.8087,-1.2863e-05,-2.46e-06,0.0,0 STARLINK-5276,1 55399U 23014J   24090.20510151 -.00000246  00000-0 -12863-4 0  9999,2 55399  70.0015  53.2344 0002557 265.2780  94.8087 14.98331917 64840,6950.187,96.107,573.829,570.275,0.0
55399.0,STARLINK-5276,PAYLOAD,2024-03-30 14:32:09,14.98331295,0.0002515,70.0017,52.2242,267.5722,92.5149,-2.1358e-05,-3.48e-06,0.0,0 STARLINK-5276,1 55399U 23014J   24090.60566167 -.00000348  00000-0 -21358-4 0  9993,2 55399  70.0017  52.2242 0002515 267.5722  92.5149 14.98331295 65847,6950.189,96.107,573.802,570.306,0.0
55399.0,STARLINK-5276,PAYLOAD,2024-03-30 22:32:49,14.9833068,0.000258,70.0014,51.3827,266.2868,93.7996,-8.9159e-06,-1.99e-06,0.0,0 STARLINK-5276,1 55399U 23014J   24090.93946119 -.00000199  00000-0 -89159-5 0  9996,2 55399  70.0014  51.3827 0002580 266.2868  93.7996 14.98330680 65897,6950.191,96.107,573.849,570.263,0.0
55399.0,STARLINK-5276,PAYLOAD,2024-03-31 04:57:21,14.98331148,0.0002594,70.0012,50.7098,264.631,95.4553,-6.1928e-06,-1.67e-06,0.0,0 STARLINK-5276,1 55399U 23014J   24091.20650052 -.00000167  00000-0 -61928-5 0  9994,2 55399  70.0012  50.7098 0002594 264.6310  95.4553 14.98331148 64995,6950.189,96.107,573.857,570.251,0.0
55399.0,STARLINK-5276,PAYLOAD,2024-03-31 14:34:10,14.98324429,0.0002767,70.0009,49.6996,256.729,103.3561,9.9357e-05,1.093e-05,0.0,0 STARLINK-5276,1 55399U 23014J   24091.60706107  .00001093  00000-0  99357-4 0  9994,2 55399  70.0009  49.6996 0002767 256.7290 103.3561 14.98324429 65999,6950.21,96.107,573.998,570.152,0.0
